INTELSAT 602 (IS-602)   
1 20315U 89087A   13027.62069480  .00000000  00000-0  10000-3 0  6307
2 20315   9.8539  49.5951 0004655  38.8726 321.2522  0.99000262 82942
INTELSAT 603 (IS-603)   
1 20523U 90021A   13027.78429747  .00000000  00000-0  10000-3 0  2082
2 20523   9.3192  51.3497 0000634 278.2527  81.8332  1.00123369 76332
SBS-6                   
1 20872U 90091A   13025.43575098 -.00000282  00000-0  10000-3 0  6376
2 20872   4.8851  64.4961 0007693   2.5804 357.4664  0.98994783 69839
INTELSAT 605 (IS-605)   
1 21653U 91055A   13026.22570885  .00000056  00000-0  10000-3 0  3681
2 21653   7.4682  57.2361 0000545 312.2900  47.7833  0.99325160 78407
INTELSAT 601 (IS-601)   
1 21765U 91075A   13021.80517001 -.00000094  00000-0  10000-3 0  4647
2 21765   7.4325  56.1526 0003032 257.3944 102.5905  0.99594260 77573
INTELSAT 701 (IS-701)   
1 22871U 93066A   13025.52785747 -.00000139  00000-0  10000-3 0   674
2 22871   0.9814  77.2235 0004217 220.8771 173.8891  1.00271905 70426
INTELSAT 702 (IS-702)   
1 23124U 94034A   13026.76908832  .00000000  00000-0  10000-3 0  8754
2 23124   1.3357  76.1789 0002661 236.6247 123.2686  1.00272346 81817
INTELSAT 2 (IS-2)       
1 23175U 94040A   13027.32338190  .00000000  00000-0  10000-3 0  2354
2 23175   3.6358  70.8931 0006694 291.6850  68.3054  0.99192137 67201
INTELSAT 704 (IS-704)   
1 23461U 95001A   13027.30490102  .00000000  00000-0  10000-3 0  5836
2 23461   3.2451  68.1245 0001679 344.5685  15.5065  0.99180013 65999
INTELSAT 705 (IS-705)   
1 23528U 95013A   13027.43335783 -.00000279  00000-0  00000+0 0  5407
2 23528   2.8189  69.3515 0019279 344.0694  15.9451  0.98976430 65223
INTELSAT 706 (IS-706)   
1 23571U 95023A   13026.62493302 -.00000144  00000-0  10000-3 0  6944
2 23571   1.2674  75.8389 0003635 200.0235 229.0499  1.00380462 64806
INTELSAT 3R (IS-3R)     
1 23764U 96002A   13027.78736911  .00000000  00000-0  10000-3 0  3655
2 23764   2.9997  68.3933 0010895 171.4892 188.6278  0.99085391 62368
PAKSAT 1 (ANATOLIA 1)   
1 23779U 96006A   13027.35696321 -.00000056  00000-0  10000-3 0  9005
2 23779   1.0289  77.7246 0004657  41.3543 318.6027  0.99597505 62144
INTELSAT 707 (IS-707)   
1 23816U 96015A   13027.07273780 -.00000065  00000-0  10000-3 0  5541
2 23816   0.2239  75.1227 0070349 243.7597  40.5658  0.98482287 61814
GALAXY 9 (G-9)          
1 23877U 96033A   13026.14145454  .00000032  00000-0  10000-3 0  6736
2 23877   3.8988  66.3464 0009470  28.6257 331.4765  0.99536248 61028
INTELSAT 709 (IS-709)   
1 23915U 96035A   13026.82122586  .00000126  00000-0  10000-3 0  7046
2 23915   0.6712  79.0557 0003177 221.0425 169.3105  1.00275204 60894
INTELSAT 26 (IS-26)     
1 24732U 97007A   13027.76791021  .00000110  00000-0  10000-3 0  3335
2 24732   4.5821  64.1093 0003713 241.3575 148.4023  1.00272914 58319
INTELSAT 801 (IS-801)   
1 24742U 97009A   13026.10691491 -.00000216  00000-0  10000-3 0  2512
2 24742   3.8069  66.7124 0005244 239.6972 188.1437  1.00272949 58308
GALAXY 25 (G-25)        
1 24812U 97026A   13026.38414624 -.00000162  00000-0  00000+0 0  5541
2 24812   0.0059  38.0724 0003144 265.4799 227.4554  1.00271455 57434
INTELSAT 802 (IS-802)   
1 24846U 97031A   13026.24607983 -.00000055  00000-0  10000-3 0  5198
2 24846   1.8139  71.8773 0026913 180.9198 179.0497  0.98108760 56960
INTELSAT 5 (IS-5)       
1 24916U 97046A   13027.84605953 -.00000352  00000-0  10000-3 0  4632
2 24916   0.2856  79.5249 0003434 223.3179 256.9835  1.00127296 56616
INTELSAT 805 (IS-805)   
1 25371U 98037A   13025.38896692 -.00000285  00000-0  10000-3 0   549
2 25371   0.0455 249.9491 0003407  55.5166 263.8990  1.00272092 53529
INTELSAT 7 (IS-7)       
1 25473U 98052A   13027.80049072 -.00000025  00000-0  00000+0 0  5452
2 25473   0.0071 347.8302 0003375 307.1643 189.0515  1.00273225 52637
INTELSAT 8 (IS-8)       
1 25522U 98065A   13025.52277108 -.00000030  00000-0  10000-3 0  3146
2 25522   0.0295 253.0757 0002913  43.4188 185.6646  1.00273045 52180
GALAXY 26 (G-26)        
1 25626U 99005A   13025.81367752  .00000115  00000-0  10000-3 0  1223
2 25626   0.0363 263.7452 0003211  37.0413 167.3878  1.00273393 51104
INSAT-2E (APR-1)        
1 25666U 99016A   13027.69925547  .00000000  00000-0  10000-3 0  2391
2 25666   2.1756  72.1045 0005475 144.2862 215.8207  0.99647951 50454
GALAXY 27 (G-27)        
1 25922U 99052A   13027.67008326  .00000000  00000-0  10000-3 0  1727
2 25922   0.0116   8.6627 0002148 313.3304  91.4541  1.00272814 46460
GALAXY 11 (G-11)        
1 26038U 99071A   13027.35229689 -.00000285  00000-0  10000-3 0  5202
2 26038   0.0279 148.2174 0001278 248.9515 160.7524  1.00267005 48084
GALAXY 4R (G-4R)        
1 26298U 00020A   13027.09864459 -.00000054  00000-0  10000-3 0  2927
2 26298   5.7395  61.0457 0002409  66.8072 293.3075  0.99828588 46854
INTELSAT 9 (IS-9)       
1 26451U 00043A   13025.11037109 -.00000269  00000-0  10000-3 0  9585
2 26451   0.2647  80.8237 0000941 231.7418 168.5812  1.00270060 45801
INTELSAT 12 (IS-12)     
1 26590U 00068A   13026.86800197  .00000137  00000-0  10000-3 0  9611
2 26590   0.0120  28.9356 0003935 280.3489 174.4837  1.00273624 44887
INTELSAT 1R (IS-1R)     
1 26608U 00072A   13024.32436375 -.00000282  00000-0  10000-3 0  5863
2 26608   0.0249 214.8148 0000945  61.3821 274.3556  1.00271707 44708
INTELSAT 10 (IS-10)     
1 26766U 01019A   13027.85375041  .00000128  00000-0  00000+0 0  1806
2 26766   0.0060  13.7268 0001041  30.2346  78.1142  1.00272550 42917
INTELSAT 901 (IS-901)   
1 26824U 01024A   13026.10720819 -.00000140  00000-0  10000-3 0  9977
2 26824   0.0109 358.9248 0003649 300.3434 206.8679  1.00272218 42649
INTELSAT 902 (IS-902)   
1 26900U 01039A   13027.63739844  .00000000  00000-0  10000-3 0   352
2 26900   0.0062 340.3958 0003121 311.5510 126.6090  1.00271869 41836
INTELSAT 904 (IS-904)   
1 27380U 02007A   13027.65668604  .00000050  00000-0  10000-3 0   656
2 27380   0.0251  41.4014 0003298 261.9236 120.1523  1.00273387 40082
INTELSAT 903 (IS-903)   
1 27403U 02016A   13027.10299753 -.00000238  00000-0  10000-3 0  7776
2 27403   0.0142  48.4855 0003348 251.4535 189.1651  1.00271405 39735
INTELSAT 905 (IS-905)   
1 27438U 02027A   13025.11085133 -.00000184  00000-0  00000+0 0  6156
2 27438   0.0519 270.8971 0002876 359.2116 229.8643  1.00272122 39031
GALAXY 3C (G-3C)        
1 27445U 02030A   13027.21456950 -.00000150  00000-0  10000-3 0  7250
2 27445   0.0129 144.3482 0000171 277.0340  47.4550  1.00273089 38932
INTELSAT 906 (IS-906)   
1 27513U 02041A   13027.62545706  .00000015  00000-0  10000-3 0  8082
2 27513   0.0283  31.5710 0002961 271.9125 112.8608  1.00273323 38115
INTELSAT 907 (IS-907)   
1 27683U 03007A   13026.10697188 -.00000202  00000-0  10000-3 0  3788
2 27683   0.0140 350.9226 0003519 315.0613 190.5598  1.00271334 36453
GALAXY 12 (G-12)        
1 27715U 03013B   13024.16652894  .00000059  00000-0  10000-3 0  6502
2 27715   0.0124  90.6502 0002308 206.9481 116.9714  1.00273434 35951
GALAXY 23 (G-23)        
1 27854U 03034A   13027.58352625  .00000013  00000-0  10000-3 0  6440
2 27854   0.0206  16.3201 0003116 283.3926 276.3704  1.00273856 34742
GALAXY 13 (HORIZONS-1)  
1 27954U 03044A   13026.60292900  .00000048  00000-0  00000+0 0  5029
2 27954   0.0105  75.6876 0000553 297.8823 202.5011  1.00273060 34216
INTELSAT 10-02          
1 28358U 04022A   13027.79889000 -.00000010  00000-0  10000-3 0  4641
2 28358   0.0311 101.0764 0000893 164.8095 147.9755  1.00273503 31615
GALAXY 28 (G-28)        
1 28702U 05022A   13027.34222881 -.00000184  00000-0  10000-3 0  4084
2 28702   0.0320  71.3761 0002231  94.1608 355.4072  1.00271248 27872
GALAXY 14 (G-14)        
1 28790U 05030A   13024.60299850  .00000037  00000-0  10000-3 0  4543
2 28790   0.0448 271.9202 0002747  20.2386 284.0006  1.00274489 27259
GALAXY 15 (G-15)        
1 28884U 05041A   13025.43479407  .00000079  00000-0  10000-3 0  4398
2 28884   0.0469 271.4984 0001546  34.2201 202.6702  1.00272740 26699
GALAXY 16 (G-16)        
1 29236U 06023A   13025.54081382 -.00000126  00000-0  10000-3 0  3791
2 29236   0.0433  54.7572 0002870 243.0596 282.8381  1.00271039 24225
GALAXY 17 (G-17)        
1 31307U 07016B   13027.46891476 -.00000174  00000-0  00000+0 0   797
2 31307   0.0131  81.5175 0003191 223.2611 259.9192  1.00272572 21050
INTELSAT 11 (IS-11)     
1 32253U 07044B   13024.32452383 -.00000268  00000-0  10000-3 0  7977
2 32253   0.0439 241.3413 0003458  74.4580 241.8061  1.00271777 19474
HORIZONS-2              
1 32388U 07063B   13025.82720610 -.00000181  00000-0  10000-3 0  9251
2 32388   0.0174   9.5969 0003396 315.1961 183.0950  1.00270370 18840
GALAXY 18 (G-18)        
1 32951U 08024A   13024.78848868  .00000025  00000-0  10000-3 0  7440
2 32951   0.0324 172.2819 0002980 127.4909 345.3301  1.00273735 17164
INTELSAT 25 (IS-25)     
1 33153U 08034A   13025.11066838 -.00000223  00000-0  10000-3 0  7927
2 33153   0.0257 125.9922 0001628 179.0766 187.8233  1.00273880 16709
INTELSAT 14 (IS-14)     
1 36097U 09064A   13025.11032535 -.00000273  00000-0  10000-3 0  4874
2 36097   0.0165  36.3702 0002417 251.8797 191.0147  1.00270390 11662
INTELSAT 15 (IS-15)     
1 36106U 09067A   13027.52243115  .00000000  00000-0  10000-3 0  6995
2 36106   0.0287  13.0490 0002878 297.4657  89.5704  1.00265425 11580
INTELSAT 16 (IS-16)     
1 36397U 10006A   13026.62015976 -.00000284  00000-0  10000-3 0  5976
2 36397   0.0165 343.6908 0002927 314.0548 353.4450  1.00269740 10813
INTELSAT 17 (IS-17)     
1 37238U 10065B   13027.79493411 -.00000001  00000-0  10000-3 0  3907
2 37238   0.0108  81.7714 0003125 223.8281 173.7835  1.00273375  8010
INTELSAT NEW DAWN       
1 37392U 11016A   13027.76118479  .00000000  00000-0  10000-3 0  3784
2 37392   0.0359  74.5445 0000271 249.5970 110.0034  1.00275494  4755
INTELSAT 18 (IS-18)     
1 37834U 11056A   13027.68375477  .00000054  00000-0  10000-3 0  2679
2 37834   0.0118 318.0143 0001772   8.6308 226.6172  1.00273457  4941
INTELSAT 22 (IS-22)     
1 38098U 12011A   13027.58669831  .00000000  00000-0  10000-3 0  1640
2 38098   0.0365  35.5547 0002633 247.6978 127.0563  1.00269630  3183
INTELSAT 19 (IS-19)     
1 38356U 12030A   13027.54015558 -.00000056  00000-0  10000-3 0  1614
2 38356   0.0172 355.8249 0002354 318.1408 173.4390  1.00272499  2522
INTELSAT 20 (IS-20)     
1 38740U 12043A   13027.66348212  .00000000  00000-0  10000-3 0  1375
2 38740   0.0411  75.2888 0002181 246.0385 113.1148  1.00269551  1669
INTELSAT 21 (IS-21)     
1 38749U 12045A   13025.38891356 -.00000285  00000-0  10000-3 0  1124
2 38749   0.0173  25.9373 0000800 284.1977 256.7063  1.00270883  1659
INTELSAT 23 (IS-23)     
1 38867U 12057A   13027.10251729 -.00000284  00000-0  10000-3 0   650
2 38867   0.0221 335.8805 0002593  53.3870  81.1477  1.00270901  1094
